#dP2023  3 13  0  0  0.00000000      96 __u+U ITR00 EXT  IAC
## 2253  86400.00000000   900.00000000 60016 0.0000000000000
+  120   C06C07C08C09C10C11C12C13C14C16C19C20C21C22C23C24C25
+        C26C27C28C29C30C32C33C34C35C36C37C38C39C40C41C42C43
+        C44C45C46E01E02E03E04E05E07E08E09E10E11E12E13E14E15
+        E18E19E21E24E25E26E27E30E31E33E34E36G01G02G03G04G05
+        G06G07G08G09G10G11G12G13G14G15G16G17G18G19G20G21G22
+        G23G24G25G26G27G28G29G30G31G32J02J03J04R01R02R03R04
+        R05R07R08R09R11R12R13R14R15R16R17R18R19R20R21R22R24
+        R25  0  0  0  0  0  0  0  0  0  0  0  0  0  0  0  0
++        13  8 10  8 10  9  7 10  8  0  7  7  8  7  8  9  7
++         8 10  8  8 10  8  8  8  8 10  8  8  8 11  9  9  9
++         8  9  6  6  6  7  9  7  6  6  7  7  7  7  9  7  7
++         7  8  7  7  6  7  7  7  7  6  6  7  7  6  6  7  6
++         6  8  6  6  7  7  7  7  7  8  6  7  6  6  7  6  7
++         7  7  6  7  6  6  7  7  6  8 10 10 10  7  6  7  8
++         9  8  8  8  8  9  8  7  7  7  6  8 12 12  6  9  9
++         9  0  0  0  0  0  0  0  0  0  0  0  0  0  0  0  0
%c M  cc GPS ccc cccc cccc cccc cccc ccccc ccccc ccccc ccccc
%c cc cc ccc ccc cccc cccc cccc cccc ccccc ccccc ccccc ccccc
%f  0.0000000  0.000000000  0.00000000000  0.000000000000000
%f  0.0000000  0.000000000  0.00000000000  0.000000000000000
%i    0    0    0    0      0      0      0      0         0
%i    0    0    0    0      0      0      0      0         0
/* IAC                                ULTRA-RAPID PREDICTION
/* S/V CLOCKS ARE ALIGNED TO GNSS TIME                      
/* G:C1WC2W R:C1PC2P E:C1XC5X C:C2IC6I J:C1CC2S             
/* PCV:IGS20_2247 OL/AL:FES2004  NONE     YN ORB:CoN CLK:CoN
*  2023 03 13  2 15  0.00000000
PC06 -19038.240903  29966.830451  22557.813130   -195.551327
PC07  -6838.390500  39215.331275  14180.087314    -12.051024
PC08  -2804.366409  21444.175306 -36164.043631    519.342617
PC09 -10020.756885  28851.260065  29239.739015    888.062021
PC10  -1178.690852  41658.245504   8280.082794     -7.888461
PC11 -10855.728784  21245.512380 -14421.033516    702.692998
PC12 -22297.022202  16589.226285   2565.459237    503.064447
PC13   3465.014695  24706.741446 -33769.906399    228.161208
PC14   -385.164489  26666.574295  -8291.754381    -14.348861
PC16 -21003.277864  29721.496838  21248.401857    140.085857
PC19  -6124.122022 -27198.327425   -884.004995   -895.739732
PC20   5811.719207 -22817.285757  14973.198789    682.394722
PC21 -15165.431519   4301.253476 -23005.830926   -908.807506
PC22 -15114.546390 -16071.705543 -17066.208100   -588.990822
PC23  23896.754791  12935.677807   6339.704968   -887.446606
PC24 -13055.306059  11976.589210  21548.552584   -302.423871
PC25   9349.481546  17606.755054  19507.367459     86.708501
PC26 -25377.816980    796.739590  11602.429939    -91.038313
PC27  23586.088981 -10691.840454 -10443.057313    109.676456
PC28  17151.502702   4914.586117 -21455.577724     80.304949
PC29   -111.713942 -19178.849392  20266.189997     92.711633
PC30  16807.479716 -21433.137693   6131.073150      0.886078
PC32  15190.446938  -4307.623958  23030.398966   -601.089410
PC33   6274.898253  27188.491305    846.490472   -870.924032
PC34 -15912.023902  21705.582160  -7336.979524    125.242903
PC35 -16619.957278  -5356.595216  21747.199348    665.522556
PC36  -8209.381603 -17816.468164 -19834.480070   -568.558381
PC37  25839.297861    771.050976 -10474.481174   -803.957380
PC38 -12539.889249  19404.524986 -35233.274695     64.588504
PC39 -25144.384810  30194.185617  15024.017581     -2.141033
PC40 -11104.286687  36840.267390  17481.817184    -17.389442
PC41  15077.774602  16596.273884  16674.683664   -716.371587
PC42  -6562.523913  22009.633983 -15818.291519   -790.430336
PC43   -624.569173  19617.042615 -19837.397528     11.465260
PC44 -23186.566145  11349.104997  10537.850079     42.448055
PC45 -24129.954296 -12715.242374  -5968.302320    -71.433147
PC46  11241.564449 -12807.324085 -22099.764126    -39.446145
PE01  22850.125735  13413.574258 -13191.019685    -16.757705
PE02 -22863.856549 -13039.527409  13554.311393     25.977161
PE03 -16994.333192  -2773.154736 -24075.687614   -658.581433
PE04  18005.922681 -17699.458855  15460.905561    -77.122305
PE05  -5943.093322 -22137.009699 -18723.807527    -87.034165
PE07  -8508.270007  28255.690629   2379.007726    -29.428207
PE08 -17921.199165  17607.627470 -15654.380969    -50.144323
PE09   8599.486492 -28232.063364  -2188.471626   -866.812221
PE10  19918.035596 -14405.943525  16488.114909   -518.652730
PE11   9238.180720 -16579.263251  22713.384790   1222.153268
PE12  26552.306283 -10172.475131   8273.980564   -455.805411
PE13 -10130.971990  16463.079536 -22407.421183    -17.659690
PE14   4190.346354 -22150.786694   7343.880384    166.700862
PE15 -26685.690218  10011.724185  -7956.559203     -7.044533
PE18    -88.936488  28444.475367 -15578.180481   -290.279724
PE19  15875.076612   5754.666154  24321.134030  -3023.391020
PE21  16788.189364  24091.755914   3691.031301   -517.167898
PE24    215.350934 -21621.311467 -20247.839644  -1161.933202
PE25 -16582.493328 -24195.309822  -4018.284064   -601.199935
PE26  13008.269053  13033.689203 -23171.098679     43.750286
PE27    623.385096  21970.014758  19815.583418   -533.342585
PE30 -16209.471167   6283.822460  23943.508922  -1312.470971
PE31  15723.572929  -6945.987188 -24096.516903   -518.388920
PE33  27366.191647   2289.644903 -11062.891988   -449.433338
PE34 -27425.628518  -2142.659395  10923.685610    -34.594119
PE36 -12122.481614 -13200.855514  23557.571836    -25.326174
PG01   7522.584027  13662.562796 -21873.902694    203.379637
PG02 -11199.715860 -12570.917273  21109.404022   -614.758300
PG03  12081.342541  22968.321347  -6060.904446   -350.759834
PG04   3022.363010  20560.422072  16485.525106     -8.381116
PG05    536.143654 -19170.031533  18154.774738   -119.245965
PG06  25748.612362  -5489.533367   3955.446405    580.768684
PG07  20789.618603   8388.183153  15052.197930    224.256539
PG08  -5312.746492  25072.431857  -6192.852094   -112.654126
PG09  11563.662812  11136.965316  21078.557515   -201.760523
PG10 -18832.127099  -4738.542757 -18083.621623    -28.317094
PG11  17448.727422 -12202.733422  15867.305805   -128.678540
PG12  -8865.780985 -23891.197052  -7942.238057   -350.819996
PG13  13098.606744 -22968.903259   -917.898049    489.601295
PG14  19560.765728   7453.351787 -16420.067536     -5.459033
PG15   1707.441338 -25573.426461  -6856.000831     21.053481
PG16  -5047.964131  17108.903024  19218.150439   -515.729415
PG17  16812.621901  -3448.403766 -19870.429016    705.143494
PG18 -23297.924685  -5588.683421  11622.097813   -177.216298
PG19  18362.982362 -12476.061334 -14595.964835    289.270401
PG20   9364.779827 -12482.364704  21537.690769    445.383569
PG21  -1380.589774  15258.368764 -21020.376706    154.319451
PG22 -17427.996267  16154.330719 -11243.967721    444.110255
PG23 -20016.715616 -14788.217847  -9478.138182     10.323157
PG24  -3481.229886 -15569.991298 -21587.305989   -109.370321
PG25 -16754.041263 -20766.506701    933.344970    427.219311
PG26 -14871.743439   6455.876910  20963.561644    241.950589
PG27 -12742.783392  22612.725253   4204.782618     82.394094
PG28 -25967.843311   5274.633255   1739.017229     41.375967
PG29  -7770.661039 -14942.839039  20464.791478   -590.557759
PG30  26460.894516   -172.609220   3681.167013   -527.127342
PG31 -24948.020194   7093.392908   6569.407109   -211.452720
PG32 -17159.142989   6778.676486 -18860.768674   -421.769173
PJ02 -26139.129912  21934.211297  29799.073513     -1.173467
PJ03 -35722.745729  21048.226860  -3131.105701      0.907143
PJ04 -19720.306454  28450.893379 -18878.689146     94.157984
PR01   9623.543362  14201.264266  18890.308093     24.650302
PR02  10537.430296  -5852.084034  22538.260886    -23.157014
PR03   5590.156065 -21579.317395  12503.874224     74.069974
PR04  -2165.432470 -25065.601812  -4213.279885    179.151886
PR05  -8768.809431 -15017.974293 -18654.694950    109.207041
PR07  -5224.940534  22009.758560 -11693.939152     51.624660
PR08   2486.303824  24971.229567   4551.391657    -69.862536
PR09 -20380.871918  -2202.656762  15141.996168    108.836051
PR11   9514.224433  14986.303791  18330.108801    -17.467656
PR12  21911.774647  12935.648426   1667.673518     25.617332
PR13  21126.161903   3772.383186 -13805.319396    -32.910810
PR14   6975.221398  -8851.450359 -22878.861151     24.416814
PR15 -10376.106239 -15337.243393 -17530.171201     90.502452
PR16 -21918.884287 -12862.253778  -1997.901510     12.291035
PR17  17271.038729 -15644.599349  10346.725345    612.108432
PR18   3234.684078 -13101.956019  21673.820671     71.159479
PR19 -11392.356003  -5066.623122  22251.981338   -225.079651
PR20 -22750.931330   8179.415229   8064.421069    -89.265305
PR21 -16288.550365  15645.676212 -11873.856096   -379.905127
PR22  -2584.313033  12971.020628 -21780.980865     74.656355
PR24  22635.832661  -9172.336651  -7332.044052    153.295867
PR25 -18127.480093  14902.352041 -10012.016696     57.570866
EOF
